{"type": "FeatureCollection", "features": [ {"type": "Feature", "properties": {"norad_id": 32152, "name": "FENGYUN 1C DEB", "group": "fengyun-1c-debris", "lat": -77.87502141973967, "lon": -79.34542466095864, "alt_km": 689.3975141283418, "timestamp": "2025-12-11T10:53:16.173248+00:00", "meta": {"OBJECT_NAME": "FENGYUN 1C DEB", "OBJECT_ID": "1999-025CSW", "EPOCH": "2025-12-08T17:23:47.343264", "MEAN_MOTION": 14.56605031, "ECCENTRICITY": 0.00551964, "INCLINATION": 98.761, "RA_OF_ASC_NODE": 143.6623, "ARG_OF_PERICENTER": 213.6072, "MEAN_ANOMALY": 146.162, "EPHEMERIS_TYPE": 0, "CLASSIFICATION_TYPE": "U", "NORAD_CAT_ID": 32152, "ELEMENT_SET_NO": 999, "REV_AT_EPOCH": 62554, "BSTAR": 0.0029018103, "MEAN_MOTION_DOT": 0.00013176, "MEAN_MOTION_DDOT": 0}, "tle": {"line1": "1 32152U 99025CSW 25342.72485351  .00013176  00000+0  29018-2 0  9998", "line2": "2 32152  98.7610 143.6623 0055196 213.6072 146.1620 14.56605031625541"}}, "geometry": {"type": "Point", "coordinates": [-79.34542466095864, -77.87502141973967]}}, {"type": "Feature", "properties": {"norad_id": 32153, "name": "FENGYUN 1C DEB", "group": "fengyun-1c-debris", "lat": -81.22134937938587, "lon": -79.62398720186556, "alt_km": 630.7010088682264, "timestamp": "2025-12-11T10:53:16.173259+00:00", "meta": {"OBJECT_NAME": "FENGYUN 1C DEB", "OBJECT_ID": "1999-025CSX", "EPOCH": "2025-12-08T07:03:10.270368", "MEAN_MOTION": 14.48698922, "ECCENTRICITY": 0.0207063, "INCLINATION": 98.7675, "RA_OF_ASC_NODE": 185.0499, "ARG_OF_PERICENTER": 234.7199, "MEAN_ANOMALY": 123.4469, "EPHEMERIS_TYPE": 0, "CLASSIFICATION_TYPE": "U", "NORAD_CAT_ID": 32153, "ELEMENT_SET_NO": 999, "REV_AT_EPOCH": 97159, "BSTAR": 0.00055146558, "MEAN_MOTION_DOT": 2.668e-05, "MEAN_MOTION_DDOT": 0}, "tle": {"line1": "1 32153U 99025CSX 25342.29386887  .00002668  00000+0  55147-3 0  9992", "line2": "2 32153  98.7675 185.0499 0207063 234.7199 123.4469 14.48698922971590"}}, "geometry": {"type": "Point", "coordinates": [-79.62398720186556, -81.22134937938587]}}, {"type": "Feature", "properties": {"norad_id": 32155, "name": "FENGYUN 1C DEB", "group": "fengyun-1c-debris", "lat": -36.49948559524459, "lon": -78.2760653326982, "alt_km": 778.3324851714551, "timestamp": "2025-12-11T10:53:16.173271+00:00", "meta": {"OBJECT_NAME": "FENGYUN 1C DEB", "OBJECT_ID": "1999-025CSZ", "EPOCH": "2025-12-04T13:09:10.027872", "MEAN_MOTION": 14.32912866, "ECCENTRICITY": 0.0069286, "INCLINATION": 98.9526, "RA_OF_ASC_NODE": 267.8922, "ARG_OF_PERICENTER": 264.2615, "MEAN_ANOMALY": 95.0665, "EPHEMERIS_TYPE": 0, "CLASSIFICATION_TYPE": "U", "NORAD_CAT_ID": 32155, "ELEMENT_SET_NO": 999, "REV_AT_EPOCH": 70105, "BSTAR": 0.001161, "MEAN_MOTION_DOT": 3.211e-05, "MEAN_MOTION_DDOT": 0}, "tle": {"line1": "1 32155U 99025CSZ 25338.54803273  .00003211  00000+0  11610-2 0  9991", "line2": "2 32155  98.9526 267.8922 0069286 264.2615  95.0665 14.32912866701056"}}, "geometry": {"type": "Point", "coordinates": [-78.2760653326982, -36.49948559524459]}}, {"type": "Feature", "properties": {"norad_id": 32156, "name": "FENGYUN 1C DEB", "group": "fengyun-1c-debris", "lat": -26.362127822151372, "lon": 159.61076525769346, "alt_km": 788.0441063657454, "timestamp": "2025-12-11T10:53:16.173281+00:00", "meta": {"OBJECT_NAME": "FENGYUN 1C DEB", "OBJECT_ID": "1999-025CTA", "EPOCH": "2025-12-08T07:32:53.302848", "MEAN_MOTION": 14.31940306, "ECCENTRICITY": 0.00822984, "INCLINATION": 99.3543, "RA_OF_ASC_NODE": 151.5435, "ARG_OF_PERICENTER": 70.1457, "MEAN_ANOMALY": 290.8571, "EPHEMERIS_TYPE": 0, "CLASSIFICATION_TYPE": "U", "NORAD_CAT_ID": 32156, "ELEMENT_SET_NO": 999, "REV_AT_EPOCH": 64757, "BSTAR": 0.00055080587, "MEAN_MOTION_DOT": 1.483e-05, "MEAN_MOTION_DDOT": 0}, "tle": {"line1": "1 32156U 99025CTA 25342.31450582  .00001483  00000+0  55081-3 0  9993", "line2": "2 32156  99.3543 151.5435 0082298  70.1457 290.8571 14.31940306647571"}}, "geometry": {"type": "Point", "coordinates": [159.61076525769346, -26.362127822151372]}}, {"type": "Feature", "properties": {"norad_id": 32160, "name": "FENGYUN 1C DEB", "group": "fengyun-1c-debris", "lat": 63.1608775183853, "lon": -19.42269886575711, "alt_km": 782.5779326623797, "timestamp": "2025-12-11T10:53:16.173293+00:00", "meta": {"OBJECT_NAME": "FENGYUN 1C DEB", "OBJECT_ID": "1999-025CTE", "EPOCH": "2025-12-08T17:12:37.312128", "MEAN_MOTION": 14.37552839, "ECCENTRICITY": 0.00822242, "INCLINATION": 98.881, "RA_OF_ASC_NODE": 139.7521, "ARG_OF_PERICENTER": 10.7927, "MEAN_ANOMALY": 349.4999, "EPHEMERIS_TYPE": 0, "CLASSIFICATION_TYPE": "U", "NORAD_CAT_ID": 32160, "ELEMENT_SET_NO": 999, "REV_AT_EPOCH": 95829, "BSTAR": 0.0007997555, "MEAN_MOTION_DOT": 2.445e-05, "MEAN_MOTION_DDOT": 0}, "tle": {"line1": "1 32160U 99025CTE 25342.71709852  .00002445  00000+0  79976-3 0  9997", "line2": "2 32160  98.8810 139.7521 0082224  10.7927 349.4999 14.37552839958297"}}, "geometry": {"type": "Point", "coordinates": [-19.42269886575711, 63.1608775183853]}}, {"type": "Feature", "properties": {"norad_id": 32161, "name": "FENGYUN 1C DEB", "group": "fengyun-1c-debris", "lat": 75.74071547904713, "lon": 52.417856985084455, "alt_km": 969.1642308519886, "timestamp": "2025-12-11T10:53:16.173303+00:00", "meta": {"OBJECT_NAME": "FENGYUN 1C DEB", "OBJECT_ID": "1999-025CTF", "EPOCH": "2025-12-08T12:16:43.883328", "MEAN_MOTION": 14.01862269, "ECCENTRICITY": 0.01354176, "INCLINATION": 98.8305, "RA_OF_ASC_NODE": 87.2791, "ARG_OF_PERICENTER": 291.8401, "MEAN_ANOMALY": 66.8408, "EPHEMERIS_TYPE": 0, "CLASSIFICATION_TYPE": "U", "NORAD_CAT_ID": 32161, "ELEMENT_SET_NO": 999, "REV_AT_EPOCH": 63370, "BSTAR": 0.00067399448, "MEAN_MOTION_DOT": 1.067e-05, "MEAN_MOTION_DDOT": 0}, "tle": {"line1": "1 32161U 99025CTF 25342.51161902  .00001067  00000+0  67399-3 0  9999", "line2": "2 32161  98.8305  87.2791 0135417 291.8401  66.8408 14.01862269633708"}}, "geometry": {"type": "Point", "coordinates": [52.417856985084455, 75.74071547904713]}}, {"type": "Feature", "properties": {"norad_id": 32162, "name": "FENGYUN 1C DEB", "group": "fengyun-1c-debris", "lat": 2.7942779970867306, "lon": -149.12065287211743, "alt_km": 655.4977709478972, "timestamp": "2025-12-11T10:53:16.173314+00:00", "meta": {"OBJECT_NAME": "FENGYUN 1C DEB", "OBJECT_ID": "1999-025CTG", "EPOCH": "2025-12-09T02:14:01.110624", "MEAN_MOTION": 14.61952906, "ECCENTRICITY": 0.00479287, "INCLINATION": 99.4626, "RA_OF_ASC_NODE": 27.7136, "ARG_OF_PERICENTER": 181.6641, "MEAN_ANOMALY": 178.4404, "EPHEMERIS_TYPE": 0, "CLASSIFICATION_TYPE": "U", "NORAD_CAT_ID": 32162, "ELEMENT_SET_NO": 999, "REV_AT_EPOCH": 94865, "BSTAR": 0.0016371454, "MEAN_MOTION_DOT": 8.282e-05, "MEAN_MOTION_DDOT": 0}, "tle": {"line1": "1 32162U 99025CTG 25343.09306841  .00008282  00000+0  16371-2 0  9996", "line2": "2 32162  99.4626  27.7136 0047928 181.6641 178.4404 14.61952906948658"}}, "geometry": {"type": "Point", "coordinates": [-149.12065287211743, 2.7942779970867306]}}, {"type": "Feature", "properties": {"norad_id": 32163, "name": "FENGYUN 1C DEB", "group": "fengyun-1c-debris", "lat": 68.49675426936032, "lon": -163.58153090059915, "alt_km": 729.3094532438145, "timestamp": "2025-12-11T10:53:16.173324+00:00", "meta": {"OBJECT_NAME": "FENGYUN 1C DEB", "OBJECT_ID": "1999-025CTH", "EPOCH": "2025-12-09T20:06:54.745632", "MEAN_MOTION": 14.43096672, "ECCENTRICITY": 0.0051781, "INCLINATION": 99.5462, "RA_OF_ASC_NODE": 349.3246, "ARG_OF_PERICENTER": 43.0607, "MEAN_ANOMALY": 317.4613, "EPHEMERIS_TYPE": 0, "CLASSIFICATION_TYPE": "U", "NORAD_CAT_ID": 32163, "ELEMENT_SET_NO": 999, "REV_AT_EPOCH": 60934, "BSTAR": 0.0015730916, "MEAN_MOTION_DOT": 5.314e-05, "MEAN_MOTION_DDOT": 0}, "tle": {"line1": "1 32163U 99025CTH 25343.83813363  .00005314  00000+0  15731-2 0  9993", "line2": "2 32163  99.5462 349.3246 0051781  43.0607 317.4613 14.43096672609344"}}, "geometry": {"type": "Point", "coordinates": [-163.58153090059915, 68.49675426936032]}}, {"type": "Feature", "properties": {"norad_id": 32167, "name": "FENGYUN 1C DEB", "group": "fengyun-1c-debris", "lat": -6.643317429033461, "lon": 159.005821815255, "alt_km": 859.0109618148199, "timestamp": "2025-12-11T10:53:16.173334+00:00", "meta": {"OBJECT_NAME": "FENGYUN 1C DEB", "OBJECT_ID": "1999-025CTM", "EPOCH": "2025-12-10T05:30:19.403136", "MEAN_MOTION": 14.30972124, "ECCENTRICITY": 0.0165377, "INCLINATION": 98.4694, "RA_OF_ASC_NODE": 338.8066, "ARG_OF_PERICENTER": 65.1476, "MEAN_ANOMALY": 296.6802, "EPHEMERIS_TYPE": 0, "CLASSIFICATION_TYPE": "U", "NORAD_CAT_ID": 32167, "ELEMENT_SET_NO": 999, "REV_AT_EPOCH": 62639, "BSTAR": 0.00054816, "MEAN_MOTION_DOT": 1.629e-05, "MEAN_MOTION_DDOT": 0}, "tle": {"line1": "1 32167U 99025CTM 25344.22939124  .00001629  00000+0  54816-3 0  9998", "line2": "2 32167  98.4694 338.8066 0165377  65.1476 296.6802 14.30972124626395"}}, "geometry": {"type": "Point", "coordinates": [159.005821815255, -6.643317429033461]}}, {"type": "Feature", "properties": {"norad_id": 32168, "name": "FENGYUN 1C DEB", "group": "fengyun-1c-debris", "lat": -70.70918394572679, "lon": 90.33762833098287, "alt_km": 820.1676313322741, "timestamp": "2025-12-11T10:53:16.173346+00:00", "meta": {"OBJECT_NAME": "FENGYUN 1C DEB", "OBJECT_ID": "1999-025CTN", "EPOCH": "2025-12-10T10:59:29.491872", "MEAN_MOTION": 13.86097811, "ECCENTRICITY": 0.02431154, "INCLINATION": 101.6564, "RA_OF_ASC_NODE": 52.9606, "ARG_OF_PERICENTER": 243.555, "MEAN_ANOMALY": 114.0469, "EPHEMERIS_TYPE": 0, "CLASSIFICATION_TYPE": "U", "NORAD_CAT_ID": 32168, "ELEMENT_SET_NO": 999, "REV_AT_EPOCH": 63448, "BSTAR": 0.0059949425, "MEAN_MOTION_DOT": 8.658e-05, "MEAN_MOTION_DDOT": 0}, "tle": {"line1": "1 32168U 99025CTN 25344.45798023  .00008658  00000+0  59949-2 0  9995", "line2": "2 32168 101.6564  52.9606 0243115 243.5550 114.0469 13.86097811634487"}}, "geometry": {"type": "Point", "coordinates": [90.33762833098287, -70.70918394572679]}}]}